[{"OBJECT_NAME":"WSF-M","OBJECT_ID":"2024-070A","EPOCH":"2026-03-09T22:09:23.192640","MEAN_MOTION":14.20717963,"ECCENTRICITY":0.00037513,"INCLINATION":98.7203,"RA_OF_ASC_NODE":78.2024,"ARG_OF_PERICENTER":243.7691,"MEAN_ANOMALY":116.31,"EPHEMERIS_TYPE":0,"CLASSIFICATION_TYPE":"U","NORAD_CAT_ID":59481,"ELEMENT_SET_NO":999,"REV_AT_EPOCH":9900,"BSTAR":5.7491191e-5,"MEAN_MOTION_DOT":8.0e-7,"MEAN_MOTION_DDOT":0},{"OBJECT_NAME":"FENGYUN 1C DEB","OBJECT_ID":"1999-025DRC","EPOCH":"2026-03-09T01:27:54.252576","MEAN_MOTION":14.06809603,"ECCENTRICITY":0.006984,"INCLINATION":98.8293,"RA_OF_ASC_NODE":111.2781,"ARG_OF_PERICENTER":274.8955,"MEAN_ANOMALY":84.4243,"EPHEMERIS_TYPE":0,"CLASSIFICATION_TYPE":"U","NORAD_CAT_ID":35244,"ELEMENT_SET_NO":999,"REV_AT_EPOCH":67035,"BSTAR":0.00060132755,"MEAN_MOTION_DOT":9.79e-6,"MEAN_MOTION_DDOT":0}]
